GSAT0101 (GALILEO-PFM)
1 37846U 11060A   25355.11306970 -.00000068  00000+0  00000+0 0  9996
2 37846  57.0509 346.5929 0003210 319.8352  40.1502  1.70475776 88081